{
  "type": "FeatureCollection",
  "name": "rabat_boundary_osm",
  "features": [
    {
      "type": "Feature",
      "properties": {
        "display_name": "Rabat ⵔⴱⴰⵟ الرباط, باشوية الرباط, Préfecture de Rabat عمالة الرباط, Rabat-Salé-Kénitra ⵔⴱⴰⵟ-ⵙⵍⴰ-ⵇⵏⵉⵟⵔⴰ الرباط-سلا-القنيطرة, Maroc ⵍⵎⵖⵔⵉⴱ المغرب",
        "osm_type": "relation",
        "osm_id": 2799215,
        "licence": "Data © OpenStreetMap contributors, ODbL 1.0. http://osm.org/copyright",
        "downloaded_at_utc": "2026-07-26T23:26:32.103487+00:00",
        "request_url": "https://nominatim.openstreetmap.org/search?q=Rabat%2C+Maroc&format=jsonv2&polygon_geojson=1&polygon_threshold=0.0003&addressdetails=1&limit=5"
      },
      "geometry": {
        "type": "MultiPolygon",
        "coordinates": [
          [
            [
              [
                -6.9305776,
                33.946396
              ],
              [
                -6.9217837,
                33.9391503
              ],
              [
                -6.9156253,
                33.9399006
              ],
              [
                -6.9088557,
                33.9456281
              ],
              [
                -6.9068226,
                33.9447168
              ],
              [
                -6.9043713,
                33.9469192
              ],
              [
                -6.9020861,
                33.9468395
              ],
              [
                -6.8985933,
                33.9453914
              ],
              [
                -6.8974292,
                33.946524
              ],
              [
                -6.8941663,
                33.9449576
              ],
              [
                -6.8906862,
                33.9439696
              ],
              [
                -6.8859405,
                33.9439564
              ],
              [
                -6.8836614,
                33.9444896
              ],
              [
                -6.882579,
                33.942084
              ],
              [
                -6.8795742,
                33.9395401
              ],
              [
                -6.882087,
                33.9373232
              ],
              [
                -6.8392323,
                33.9055295
              ],
              [
                -6.8292909,
                33.8982796
              ],
              [
                -6.8260363,
                33.8964011
              ],
              [
                -6.8237243,
                33.8977618
              ],
              [
                -6.8210614,
                33.9022896
              ],
              [
                -6.8136692,
                33.9077539
              ],
              [
                -6.8078327,
                33.911214
              ],
              [
                -6.805687,
                33.9137582
              ],
              [
                -6.8037879,
                33.9175778
              ],
              [
                -6.8058586,
                33.9212824
              ],
              [
                -6.8071568,
                33.9226667
              ],
              [
                -6.8073714,
                33.9242345
              ],
              [
                -6.8061912,
                33.9291107
              ],
              [
                -6.8003724,
                33.9311737
              ],
              [
                -6.794282,
                33.9361098
              ],
              [
                -6.7952249,
                33.9373666
              ],
              [
                -6.792906,
                33.9391342
              ],
              [
                -6.7906565,
                33.9399317
              ],
              [
                -6.7873763,
                33.9447082
              ],
              [
                -6.782362,
                33.9473882
              ],
              [
                -6.777635,
                33.9561756
              ],
              [
                -6.7769215,
                33.9598909
              ],
              [
                -6.7756828,
                33.9627512
              ],
              [
                -6.772809,
                33.9666552
              ],
              [
                -6.7701965,
                33.9675911
              ],
              [
                -6.7631048,
                33.9737806
              ],
              [
                -6.7614635,
                33.9781721
              ],
              [
                -6.761479,
                33.9797257
              ],
              [
                -6.7622068,
                33.981703
              ],
              [
                -6.7636468,
                33.9836675
              ],
              [
                -6.7656597,
                33.9850926
              ],
              [
                -6.7667745,
                33.9865563
              ],
              [
                -6.767301,
                33.9879685
              ],
              [
                -6.7672545,
                33.990318
              ],
              [
                -6.7679204,
                33.9914092
              ],
              [
                -6.7727359,
                33.9923079
              ],
              [
                -6.775492,
                33.9949653
              ],
              [
                -6.7763901,
                33.9971862
              ],
              [
                -6.7783256,
                33.9991374
              ],
              [
                -6.7803231,
                33.9991888
              ],
              [
                -6.7847019,
                33.9965957
              ],
              [
                -6.7870431,
                33.9939254
              ],
              [
                -6.7878731,
                33.9918611
              ],
              [
                -6.7900904,
                33.9899405
              ],
              [
                -6.7912919,
                33.9900638
              ],
              [
                -6.7941038,
                33.9928984
              ],
              [
                -6.7958257,
                33.9936379
              ],
              [
                -6.802267,
                33.9936687
              ],
              [
                -6.8037163,
                33.9941
              ],
              [
                -6.806169,
                33.9980334
              ],
              [
                -6.8086253,
                34.0003857
              ],
              [
                -6.8106449,
                34.003624
              ],
              [
                -6.81183,
                34.0070125
              ],
              [
                -6.8118542,
                34.009248
              ],
              [
                -6.8111891,
                34.0111327
              ],
              [
                -6.8071378,
                34.0167462
              ],
              [
                -6.8072467,
                34.0211065
              ],
              [
                -6.8086616,
                34.0238529
              ],
              [
                -6.8109867,
                34.0257386
              ],
              [
                -6.8151678,
                34.0272206
              ],
              [
                -6.8239629,
                34.0273702
              ],
              [
                -6.8241108,
                34.0267921
              ],
              [
                -6.8247386,
                34.0268166
              ],
              [
                -6.8315875,
                34.0283572
              ],
              [
                -6.834408,
                34.0308328
              ],
              [
                -6.8346394,
                34.0331906
              ],
              [
                -6.8356718,
                34.0338316
              ],
              [
                -6.8355396,
                34.0348722
              ],
              [
                -6.8358453,
                34.0355185
              ],
              [
                -6.8365722,
                34.0360738
              ],
              [
                -6.8357411,
                34.0348749
              ],
              [
                -6.8364251,
                34.0344904
              ],
              [
                -6.8392416,
                34.034551
              ],
              [
                -6.8392973,
                34.0365536
              ],
              [
                -6.8401386,
                34.0378389
              ],
              [
                -6.8396108,
                34.0361269
              ],
              [
                -6.8396218,
                34.0330736
              ],
              [
                -6.8430769,
                34.0316113
              ],
              [
                -6.8441713,
                34.0321277
              ],
              [
                -6.8451704,
                34.0316529
              ],
              [
                -6.8446396,
                34.0310354
              ],
              [
                -6.8451376,
                34.0302933
              ],
              [
                -6.8466747,
                34.0302458
              ],
              [
                -6.8466345,
                34.0282965
              ],
              [
                -6.847473,
                34.0280221
              ],
              [
                -6.8484731,
                34.0288375
              ],
              [
                -6.8483783,
                34.0283332
              ],
              [
                -6.8490864,
                34.0281709
              ],
              [
                -6.8489309,
                34.0277508
              ],
              [
                -6.8507694,
                34.0270571
              ],
              [
                -6.8509009,
                34.0257078
              ],
              [
                -6.8524324,
                34.025919
              ],
              [
                -6.8536113,
                34.0245463
              ],
              [
                -6.8539613,
                34.0227907
              ],
              [
                -6.8548787,
                34.0227979
              ],
              [
                -6.8564249,
                34.020869
              ],
              [
                -6.8582958,
                34.0195945
              ],
              [
                -6.8581157,
                34.0183946
              ],
              [
                -6.8591702,
                34.0175714
              ],
              [
                -6.859881,
                34.0178382
              ],
              [
                -6.8655056,
                34.0120866
              ],
              [
                -6.8660206,
                34.0108971
              ],
              [
                -6.8718785,
                34.0056542
              ],
              [
                -6.875191,
                34.0017586
              ],
              [
                -6.8774602,
                33.9998507
              ],
              [
                -6.878812,
                33.9994549
              ],
              [
                -6.8789193,
                33.9983319
              ],
              [
                -6.8821943,
                33.9956835
              ],
              [
                -6.8838519,
                33.9930638
              ],
              [
                -6.8860406,
                33.991903
              ],
              [
                -6.8872368,
                33.9920942
              ],
              [
                -6.8873736,
                33.9925701
              ],
              [
                -6.8880414,
                33.992199
              ],
              [
                -6.888033,
                33.9905964
              ],
              [
                -6.8897125,
                33.9885293
              ],
              [
                -6.8906057,
                33.9882135
              ],
              [
                -6.8931323,
                33.9854713
              ],
              [
                -6.8947497,
                33.9848997
              ],
              [
                -6.8952218,
                33.9843926
              ],
              [
                -6.8950743,
                33.9835742
              ],
              [
                -6.8957582,
                33.9833629
              ],
              [
                -6.8957931,
                33.9828469
              ],
              [
                -6.896697,
                33.9826156
              ],
              [
                -6.8988696,
                33.9807851
              ],
              [
                -6.9007874,
                33.9785276
              ],
              [
                -6.9014981,
                33.978432
              ],
              [
                -6.9035313,
                33.9765035
              ],
              [
                -6.90355,
                33.9760008
              ],
              [
                -6.904069,
                33.9760464
              ],
              [
                -6.9071227,
                33.973692
              ],
              [
                -6.9082439,
                33.9724553
              ],
              [
                -6.9080052,
                33.9719859
              ],
              [
                -6.9094375,
                33.9713275
              ],
              [
                -6.9110173,
                33.9694301
              ],
              [
                -6.9112989,
                33.9681844
              ],
              [
                -6.9125623,
                33.9675037
              ],
              [
                -6.9121009,
                33.9662645
              ],
              [
                -6.9130772,
                33.9650722
              ],
              [
                -6.9170845,
                33.9617397
              ],
              [
                -6.9254186,
                33.9516545
              ],
              [
                -6.9305776,
                33.946396
              ]
            ],
            [
              [
                -6.8423131,
                34.0018259
              ],
              [
                -6.8419234,
                34.0027321
              ],
              [
                -6.8407057,
                34.0032551
              ],
              [
                -6.8408107,
                34.0036894
              ],
              [
                -6.8372171,
                34.0070274
              ],
              [
                -6.8358884,
                34.0073967
              ],
              [
                -6.8374076,
                34.0128244
              ],
              [
                -6.8351934,
                34.0133489
              ],
              [
                -6.8344148,
                34.0114729
              ],
              [
                -6.8334121,
                34.0117572
              ],
              [
                -6.833723,
                34.0124411
              ],
              [
                -6.8333942,
                34.0129358
              ],
              [
                -6.8321958,
                34.0125694
              ],
              [
                -6.8293275,
                34.0087319
              ],
              [
                -6.8265283,
                34.0062323
              ],
              [
                -6.8354862,
                33.998862
              ],
              [
                -6.8401065,
                33.9991091
              ],
              [
                -6.8423131,
                34.0018259
              ]
            ]
          ],
          [
            [
              [
                -6.8471689,
                34.0283888
              ],
              [
                -6.8471235,
                34.0282277
              ],
              [
                -6.8470639,
                34.0282683
              ],
              [
                -6.8471689,
                34.0283888
              ]
            ]
          ],
          [
            [
              [
                -6.8468859,
                34.030625
              ],
              [
                -6.8470922,
                34.0304376
              ],
              [
                -6.8467944,
                34.0305015
              ],
              [
                -6.8468859,
                34.030625
              ]
            ]
          ],
          [
            [
              [
                -6.8455913,
                34.0310912
              ],
              [
                -6.8454116,
                34.0307071
              ],
              [
                -6.8452753,
                34.0308187
              ],
              [
                -6.8455913,
                34.0310912
              ]
            ]
          ]
        ]
      }
    }
  ]
}
